OBJECT_NAME,OBJECT_ID,EPOCH,MEAN_MOTION,ECCENTRICITY,INCLINATION,RA_OF_ASC_NODE,ARG_OF_PERICENTER,MEAN_ANOMALY,EPHEMERIS_TYPE,CLASSIFICATION_TYPE,NORAD_CAT_ID,ELEMENT_SET_NO,REV_AT_EPOCH,BSTAR,MEAN_MOTION_DOT,MEAN_MOTION_DDOT
W-CUBE,2021-059CQ,2025-08-17T18:28:09.069024,15.8496487,0.0003728,97.6654,48.4705,272.0334,88.0509,0,U,48965,999,23107,0.00060209,0.00142135,0.0
ONEWEB-0249,2021-060A,2025-08-17T21:36:19.813248,13.16593092,0.0001922,87.9022,289.2354,96.9403,263.1946,0,U,48967,999,19970,-0.00014007,-4.1e-07,0.0
ONEWEB-0250,2021-060B,2025-08-17T22:11:33.762912,13.25812143,0.0001024,87.9024,287.9801,105.5498,254.5751,0,U,48968,999,20003,6.6081e-05,4.2e-07,0.0
ONEWEB-0252,2021-060D,2025-08-17T22:21:55.912032,13.1659302,0.0002322,87.9025,289.2221,95.3949,264.7447,0,U,48970,999,19975,0.00014946,7e-07,0.0
ONEWEB-0253,2021-060E,2025-08-17T22:05:57.622848,13.16592086,0.0001932,87.9025,289.2278,88.9245,271.2107,0,U,48971,999,19968,7.2433e-05,4.1e-07,0.0
ONEWEB-0254,2021-060F,2025-08-17T16:51:19.397376,13.16595852,0.0001681,87.9028,289.2576,86.1073,274.025,0,U,48972,999,19965,2.9456e-06,1.4e-07,0.0
ONEWEB-0255,2021-060G,2025-08-17T21:24:55.533024,13.16592402,0.000187,87.9018,289.2487,89.0916,271.0429,0,U,48973,999,19975,-0.00027425,-9.2e-07,0.0
ONEWEB-0256,2021-060H,2025-08-18T05:20:17.297088,13.16593004,0.000211,87.9016,289.1934,97.2259,262.9112,0,U,48974,999,20105,0.00013809,6.6e-07,0.0
ONEWEB-0257,2021-060J,2025-08-17T20:59:50.884800,13.16593137,0.0001989,87.9023,289.2302,89.4348,270.701,0,U,48975,999,20096,-0.00015745,-4.7e-07,0.0
ONEWEB-0258,2021-060K,2025-08-17T21:02:08.359296,13.1659406,0.0001932,87.902,289.2543,97.0299,263.1052,0,U,48976,999,19968,-0.00010178,-2.6e-07,0.0
ONEWEB-0259,2021-060L,2025-08-17T20:53:00.436416,13.16592964,0.0001827,87.9025,289.2405,92.1988,267.9352,0,U,48977,999,20100,0.00010125,5.2e-07,0.0
ONEWEB-0260,2021-060M,2025-08-17T20:40:28.269120,13.16593811,0.0002488,87.9019,289.2671,93.031,267.1105,0,U,48978,999,19969,6.1957e-05,3.7e-07,0.0
ONEWEB-0261,2021-060N,2025-08-17T21:46:34.211424,13.16595034,0.0002098,87.9016,289.2595,83.7663,276.3707,0,U,48979,999,19975,-0.00010951,-2.9e-07,0.0
ONEWEB-0262,2021-060P,2025-08-17T21:18:06.326208,13.16594368,0.0001729,87.9021,289.2263,92.2175,267.9154,0,U,48980,999,19971,-0.00037512,-1.31e-06,0.0
ONEWEB-0263,2021-060Q,2025-08-18T05:21:26.106912,13.16595271,0.0001818,87.9018,289.1826,82.2021,277.9316,0,U,48981,999,20102,0.00011967,5.9e-07,0.0
ONEWEB-0264,2021-060R,2025-08-18T04:25:35.374944,13.16604917,0.0002189,87.9015,289.1956,90.5987,269.5394,0,U,48982,999,20101,-0.0033953,-1.285e-05,0.0
ONEWEB-0266,2021-060T,2025-08-18T04:56:21.291936,13.16594328,0.0001856,87.9021,289.1668,99.8882,260.2459,0,U,48984,999,20101,9.4592e-05,4.9e-07,0.0
ONEWEB-0267,2021-060U,2025-08-17T21:54:34.077888,13.1659455,0.0002025,87.9021,289.2275,88.326,271.8103,0,U,48985,999,19968,5.5941e-05,3.4e-07,0.0
ONEWEB-0268,2021-060V,2025-08-17T21:08:57.690528,13.16593593,0.0002114,87.9021,289.2398,94.5107,265.6265,0,U,48986,999,19994,-0.00024165,-8e-07,0.0
ONEWEB-0269,2021-060W,2025-08-18T03:59:19.751712,13.16592819,0.0002075,87.9019,289.2148,99.3574,260.7792,0,U,48987,999,20105,0.00034399,1.44e-06,0.0
ONEWEB-0270,2021-060X,2025-08-17T21:06:41.106816,13.16593631,0.0001773,87.9021,289.242,83.1127,277.0206,0,U,48988,999,19975,-0.00016663,-5.1e-07,0.0
ONEWEB-0271,2021-060Y,2025-08-18T04:06:11.643840,13.16594913,0.0001965,87.9023,289.1676,87.368,272.7676,0,U,48989,999,20108,7.6569e-06,1.6e-07,0.0
ONEWEB-0272,2021-060Z,2025-08-17T15:52:04.600704,13.16594399,0.0002093,87.9015,289.2988,89.2116,270.9255,0,U,48990,999,19967,-6.5836e-05,-1.2e-07,0.0
ONEWEB-0273,2021-060AA,2025-08-17T21:52:17.404320,13.1659325,0.0001867,87.9021,289.2352,92.0668,268.0677,0,U,48991,999,19968,4.4987e-05,3e-07,0.0
ONEWEB-0274,2021-060AB,2025-08-17T20:39:20.070144,13.16594715,0.0002382,87.9018,289.2787,92.1793,267.9611,0,U,48992,999,19971,7.5082e-05,4.2e-07,0.0
ONEWEB-0275,2021-060AC,2025-08-18T05:30:32.658624,13.16595274,0.0002017,87.9022,289.1671,92.8754,267.2608,0,U,48993,999,20098,0.00014978,7e-07,0.0
ONEWEB-0276,2021-060AD,2025-08-17T21:11:15.051840,13.16592732,0.0001837,87.9022,289.2334,94.4028,265.7313,0,U,48994,999,19966,-0.00026132,-8.7e-07,0.0
ONEWEB-0277,2021-060AE,2025-08-17T21:29:28.170816,13.16592269,0.0002032,87.902,289.265,84.888,275.2483,0,U,48995,999,19965,-0.0001358,-3.9e-07,0.0
ONEWEB-0278,2021-060AF,2025-08-18T04:33:32.919840,13.16593371,0.0001824,87.9021,289.1686,100.4239,259.7097,0,U,48996,999,20113,-0.00022623,-7.4e-07,0.0
ONEWEB-0279,2021-060AG,2025-08-17T21:27:12.877056,13.16594309,0.0002152,87.9022,289.2236,87.5773,272.5604,0,U,48997,999,19971,-0.00011563,-3.1e-07,0.0
