W-CUBE                  
1 48965U 21059CQ  25229.76954941  .00142135  00000+0  60209-3 0  9999
2 48965  97.6654  48.4705 0003728 272.0334  88.0509 15.84964870231075
ONEWEB-0249             
1 48967U 21060A   25229.90022932 -.00000041  00000+0 -14007-3 0  9991
2 48967  87.9022 289.2354 0001922  96.9403 263.1946 13.16593092199708
ONEWEB-0250             
1 48968U 21060B   25229.92469633  .00000042  00000+0  66081-4 0  9996
2 48968  87.9024 287.9801 0001024 105.5498 254.5751 13.25812143200035
ONEWEB-0252             
1 48970U 21060D   25229.93189713  .00000070  00000+0  14946-3 0  9991
2 48970  87.9025 289.2221 0002322  95.3949 264.7447 13.16593020199750
ONEWEB-0253             
1 48971U 21060E   25229.92080582  .00000041  00000+0  72433-4 0  9999
2 48971  87.9025 289.2278 0001932  88.9245 271.2107 13.16592086199685
ONEWEB-0254             
1 48972U 21060F   25229.70230784  .00000014  00000+0  29456-5 0  9995
2 48972  87.9028 289.2576 0001681  86.1073 274.0250 13.16595852199651
ONEWEB-0255             
1 48973U 21060G   25229.89230941 -.00000092  00000+0 -27425-3 0  9991
2 48973  87.9018 289.2487 0001870  89.0916 271.0429 13.16592402199754
ONEWEB-0256             
1 48974U 21060H   25230.22242242  .00000066  00000+0  13809-3 0  9998
2 48974  87.9016 289.1934 0002110  97.2259 262.9112 13.16593004201052
ONEWEB-0257             
1 48975U 21060J   25229.87489450 -.00000047  00000+0 -15745-3 0  9994
2 48975  87.9023 289.2302 0001989  89.4348 270.7010 13.16593137200966
ONEWEB-0258             
1 48976U 21060K   25229.87648564 -.00000026  00000+0 -10178-3 0  9990
2 48976  87.9020 289.2543 0001932  97.0299 263.1052 13.16594060199683
ONEWEB-0259             
1 48977U 21060L   25229.87014394  .00000052  00000+0  10125-3 0  9998
2 48977  87.9025 289.2405 0001827  92.1988 267.9352 13.16592964201006
ONEWEB-0260             
1 48978U 21060M   25229.86143830  .00000037  00000+0  61957-4 0  9999
2 48978  87.9019 289.2671 0002488  93.0310 267.1105 13.16593811199699
ONEWEB-0261             
1 48979U 21060N   25229.90734041 -.00000029  00000+0 -10951-3 0  9995
2 48979  87.9016 289.2595 0002098  83.7663 276.3707 13.16595034199752
ONEWEB-0262             
1 48980U 21060P   25229.88757322 -.00000131  00000+0 -37512-3 0  9997
2 48980  87.9021 289.2263 0001729  92.2175 267.9154 13.16594368199712
ONEWEB-0263             
1 48981U 21060Q   25230.22321883  .00000059  00000+0  11967-3 0  9990
2 48981  87.9018 289.1826 0001818  82.2021 277.9316 13.16595271201024
ONEWEB-0264             
1 48982U 21060R   25230.18443721 -.00001285  00000+0 -33953-2 0  9994
2 48982  87.9015 289.1956 0002189  90.5987 269.5394 13.16604917201011
ONEWEB-0266             
1 48984U 21060T   25230.20580199  .00000049  00000+0  94592-4 0  9993
2 48984  87.9021 289.1668 0001856  99.8882 260.2459 13.16594328201010
ONEWEB-0267             
1 48985U 21060U   25229.91289442  .00000034  00000+0  55941-4 0  9996
2 48985  87.9021 289.2275 0002025  88.3260 271.8103 13.16594550199688
ONEWEB-0268             
1 48986U 21060V   25229.88122327 -.00000080  00000+0 -24165-3 0  9997
2 48986  87.9021 289.2398 0002114  94.5107 265.6265 13.16593593199948
ONEWEB-0269             
1 48987U 21060W   25230.16620083  .00000144  00000+0  34399-3 0  9992
2 48987  87.9019 289.2148 0002075  99.3574 260.7792 13.16592819201053
ONEWEB-0270             
1 48988U 21060X   25229.87964244 -.00000051  00000+0 -16663-3 0  9992
2 48988  87.9021 289.2420 0001773  83.1127 277.0206 13.16593631199756
ONEWEB-0271             
1 48989U 21060Y   25230.17096810  .00000016  00000+0  76569-5 0  9995
2 48989  87.9023 289.1676 0001965  87.3680 272.7676 13.16594913201081
ONEWEB-0272             
1 48990U 21060Z   25229.66116436 -.00000012  00000+0 -65836-4 0  9998
2 48990  87.9015 289.2988 0002093  89.2116 270.9255 13.16594399199671
ONEWEB-0273             
1 48991U 21060AA  25229.91131255  .00000030  00000+0  44987-4 0  9995
2 48991  87.9021 289.2352 0001867  92.0668 268.0677 13.16593250199688
ONEWEB-0274             
1 48992U 21060AB  25229.86064896  .00000042  00000+0  75082-4 0  9999
2 48992  87.9018 289.2787 0002382  92.1793 267.9611 13.16594715199717
ONEWEB-0275             
1 48993U 21060AC  25230.22954466  .00000070  00000+0  14978-3 0  9990
2 48993  87.9022 289.1671 0002017  92.8754 267.2608 13.16595274200985
ONEWEB-0276             
1 48994U 21060AD  25229.88281310 -.00000087  00000+0 -26132-3 0  9997
2 48994  87.9022 289.2334 0001837  94.4028 265.7313 13.16592732199668
ONEWEB-0277             
1 48995U 21060AE  25229.89546494 -.00000039  00000+0 -13580-3 0  9996
2 48995  87.9020 289.2650 0002032  84.8880 275.2483 13.16592269199653
ONEWEB-0278             
1 48996U 21060AF  25230.18996435 -.00000074  00000+0 -22623-3 0  9992
2 48996  87.9021 289.1686 0001824 100.4239 259.7097 13.16593371201134
ONEWEB-0279             
1 48997U 21060AG  25229.89389904 -.00000031  00000+0 -11563-3 0  9990
2 48997  87.9022 289.2236 0002152  87.5773 272.5604 13.16594309199710
